#dP2024 11  3  0  0  0.00000000      96 __u+U IGS20 FIT  IAC
## 2339      0.00000000   900.00000000 60617 0.0000000000000
+   52   G02G03G04G05G06G07G08G09G10G11G12G13G14G15G16G17G18
+        G19G20G21G22G23G24G25G26G27G28G29G30G31G32R01R02R03
+        R04R05R07R08R09R11R12R14R15R16R17R18R19R20R21R22R24
+        R26  0  0  0  0  0  0  0  0  0  0  0  0  0  0  0  0
+          0  0  0  0  0  0  0  0  0  0  0  0  0  0  0  0  0
++         6  6  6  6  6  6  6  6  6  6  6  7  5  6  7  6  6
++         6  6  6  6  6  5  5  5  7  7  7  6  5  7  8  8  7
++         7  7  7  8  6  7  7  6  7  6  7  7  5  7  6  6  7
++         7  0  0  0  0  0  0  0  0  0  0  0  0  0  0  0  0
++         0  0  0  0  0  0  0  0  0  0  0  0  0  0  0  0  0
%c M  cc GPS ccc cccc cccc cccc cccc ccccc ccccc ccccc ccccc
%c cc cc ccc ccc cccc cccc cccc cccc ccccc ccccc ccccc ccccc
%f  0.0000000  0.000000000  0.00000000000  0.000000000000000
%f  0.0000000  0.000000000  0.00000000000  0.000000000000000
%i    0    0    0    0      0      0      0      0         0
%i    0    0    0    0      0      0      0      0         0
/* INFORMATION & ANALYSIS CENTER (IAC)      ULTRA-RAPID DATA
/* S/V CLOCKS ARE ALIGNED TO GNSS TIME                      
/* G:C1WC2W R:C1PC2P E:C1XC5X C:C2IC6I J:C1CC2S             
/* PCV:IGS20_2317 OL/AL:FES2004  NONE     YN ORB:CoN CLK:CoN
*  2024 11 03  7 30  0.00000000
PG02  19030.795122  13409.525468 -12631.162174   -323.016788
PG03  12386.453167  20020.103334  12237.847021    589.305960
PG04  12379.065153   9174.592164  21660.971456    472.971626
PG05  -5058.948745 -25901.776584   2487.546278   -191.823098
PG06  16587.964087  -7738.325824  19359.349693    -85.914543
PG07  25791.202371   6814.788916  -2104.464286    -22.610437
PG08   2342.079130  17477.168938 -19847.943681    403.095022
PG09  19197.822038   -536.183665  18279.280024    426.842197
PG10 -11516.979507  11584.190497 -20641.058726   -181.681060
PG11   2007.205642 -15261.692675  21685.398841   -748.186809
PG12  -9392.669885 -23194.582260   8681.266160   -549.537023
PG13   7602.792151 -19040.216852 -16985.462470    684.398150
PG14  14115.415357  -7507.075121 -21135.014995    531.631971
PG15  -4997.222217 -17257.045338 -20041.698639    223.293198
PG16  -1242.100143  25458.689526   6231.246734   -138.171201
PG17  22437.355960 -13225.649623  -5268.257285    572.799948
PG18 -25672.360161  -5483.677062  -4753.660566   -659.724384
PG19  19457.010644 -17314.361739   3706.979809    558.272709
PG20   1209.716888 -22773.320771  13812.268608    369.078908
PG21  14098.765089  15202.495262 -16784.524061     98.340502
PG22  10620.438794 -16260.906671 -17854.168349    -76.429109
PG23 -15483.251489  -3558.929308 -21290.779129    355.297748
PG24 -16828.351794 -14937.593014 -14878.152681   -482.217545
PG25 -15666.333764 -12063.576327  17509.841344    499.243704
PG26  -7006.155349  19268.079441  16507.654779     39.092030
PG27  -8547.934242  20973.219179 -13812.824993    -34.741711
PG28 -18300.640942   7539.242203  17699.318886   -466.985936
PG29 -18499.591696  -2162.111747  18942.514906   -566.631820
PG30  23449.922119  -2033.293306 -12414.867348   -289.621467
PG31  -7814.503492  13325.893771  21389.667558   -222.392528
PG32 -20865.203912  15811.238265  -3553.312681   -578.803561
PR01 -13169.189141  21073.419662  -5773.128875    103.180741
PR02  -5721.309922  22060.910325  11418.375670    -25.489929
PR03   5997.957200  11027.099827  22235.359451    110.633480
PR04  13806.715155  -5595.452960  20736.251610    262.238746
PR05  14599.071640 -19274.591010   8181.028942    140.117603
PR07  -6164.850251 -10725.604452 -22281.220847     94.210152
PR08 -13870.243581   5905.111279 -20508.710495     -6.328046
PR09  -6943.203659 -21018.440102 -12583.615984    218.367535
PR11 -15935.307150  -8861.465385  17838.843506      7.735377
PR12  -6482.943396   9919.485987  22609.167254     46.790692
PR14  15527.174956  19815.497897  -4169.121521     27.161195
PR15  15539.291330   7334.809369 -18837.767475     74.472666
PR16   6451.379508  -9680.411621 -22689.554553     30.473918
PR17  17792.243070   7036.751341 -16827.341035    136.490996
PR18  25447.896975    238.347361  -2013.275889    170.031619
PR19  21624.543135  -5442.578583  12383.030687   -297.122731
PR20   1741.614747 -10396.911403  23244.371368   -121.394550
PR21 -17015.983572  -7455.800994  17503.797501   -148.136302
PR22 -25490.259519   -299.558437    853.004873      1.645971
PR24   -651.409974  10931.705593 -23013.700457    -78.600366
PR26 -13370.482244   4319.865085 -21276.550156   -489.742535
*  2024 11 03  7 45  0.00000000
PG02  17397.800519  13262.662494 -14832.731074   -323.009184
PG03  12535.830284  21292.860803   9721.289757    589.315837
PG04  10535.367983  10840.139708  21852.712157    472.977614
PG05  -4713.659627 -25517.006141   5326.937720   -191.823956
PG06  18569.825014  -7035.587917  17765.793296    -85.940281
PG07  25851.987593   7094.520468    702.599728    -22.608002
PG08    713.829222  18949.091514 -18533.312477    403.104722
PG09  17748.758959   1106.382678  19653.311454    426.857375
PG10 -12164.388390   9214.005761 -21468.845377   -181.693706
PG11   4361.488677 -14473.183471  21874.198203   -748.188774
PG12  -9307.239819 -24095.665418   5994.271538   -549.539107
PG13   9156.966729 -19958.590429 -15002.138250    684.399297
PG14  14694.743784  -5121.444926 -21470.217475    531.639445
PG15  -3597.947219 -18875.825222 -18798.124769    223.297396
PG16  -1658.508903  24592.527728   8930.642806   -138.162466
PG17  21969.215941 -12535.576313  -7988.283013    572.787474
PG18 -25978.507661  -5785.227159  -1917.904580   -659.725135
PG19  19845.741117 -17268.770143    832.173410    558.276551
PG20   2066.803032 -21313.337820  15882.970487    369.078927
PG21  12066.549063  14918.802700 -18404.970217     98.339767
PG22  11075.438196 -14114.080125 -19286.005769    -76.431484
PG23 -16062.146889  -5867.429809 -20351.275542    355.304965
PG24 -15093.325989 -14811.468104 -16766.620704   -482.215938
PG25 -16002.643640 -13997.940086  15733.945364    499.243567
PG26  -7867.056983  17412.825451  18122.200678     39.080400
PG27  -9723.695197  21801.203068 -11470.202566    -34.741668
PG28 -20124.479701   6905.685802  15887.263461   -466.996944
PG29 -16832.879588  -3665.534398  20209.179231   -566.629232
PG30  24627.501287  -1420.177028 -10044.059983   -289.614521
PG31 -10159.504707  12553.048525  20904.861981   -222.391730
PG32 -20624.032075  15208.020707  -6349.259989   -578.799123
PR01 -12675.571546  20307.634652  -8820.092095    103.181953
PR02  -6123.533767  23229.506920   8505.314064    -25.489629
PR03   4898.744996  13459.333781  21130.578677    110.633579
PR04  12584.234940  -3264.553784  21974.573710    262.240234
PR05  13921.460968 -18282.346147  11113.090741    140.118716
PR07  -5053.050247 -13178.640685 -21226.812762     94.211431
PR08 -12680.555357   3565.138900 -21779.952098     -6.328312
PR09  -5978.029829 -19600.344525 -15116.792089    218.369679
PR11 -17205.934370 -10491.712364  15635.796298      7.734810
PR12  -8073.752623   7605.958127  22991.900329     46.791164
PR14  15808.805005  20007.444434   -992.803156     27.161598
PR15  16863.744172   9097.267064 -16824.840170     74.472785
PR16   8059.334585  -7358.021378 -23047.301918     30.474850
PR17  15579.585661   7080.490106 -18879.997460    136.494008
PR18  24988.070983     63.457597  -5208.335154    170.033347
PR19  22971.706719  -5671.045153   9521.768571   -297.123229
PR20   4581.713463 -10500.853298  22809.618082   -121.396355
PR21 -14732.601971  -7478.087782  19454.181029   -148.139296
PR22 -25186.744153   -166.048708   4046.360382      1.635467
PR24  -3466.245859  11157.699192 -22652.949014    -78.601320
PR26 -12172.984666   1905.283420 -22320.903376   -489.705373
EOF
